satname,norad_id,inclination_deg,eccentricity,mean_motion_rev_per_day,perigee_km,apogee_km,l1,l2
STARLINK-1564,46058,53.1598,0.000113,15.30188504,474.47496195546137,476.0238272806446,1 46058U 20055AH  26157.44572643 -.00000693  00000+0 -11271-4 0  9996,2 46058  53.1598  62.1110 0001130 132.1940 227.9157 15.30188504322658
STARLINK-1570,46059,53.1591,0.000115,15.31699447,469.9540226463432,471.5292647343931,1 46059U 20055AJ  26156.89830882 -.00000044  00000+0  10331-4 0  9992,2 46059  53.1591  63.6023 0001150  86.1742 273.9391 15.31699447322544
STARLINK-1572,46060,53.1598,0.0001561,15.30199023,474.148177853368,476.2877952801755,1 46060U 20055AK  26157.42673691  .00002592  00000+0  99621-4 0  9995,2 46060  53.1598  61.9431 0001561 106.7028 253.4144 15.30199023322621
STARLINK-1573,46061,53.1614,0.000137,15.31705487,469.78534490547827,471.6619327205135,1 46061U 20055AL  26157.99356911  .00003800  00000+0  13414-3 0  9999,2 46061  53.1614  58.4705 0001370  85.3295 274.7863 15.31705487322758
STARLINK-1577,46063,53.161,0.0001123,15.31705162,469.95548045693613,471.49373477400604,1 46063U 20055AN  26157.43428572  .00000886  00000+0  40300-4 0  9999,2 46063  53.1610  61.0729 0001123 107.6024 252.5100 15.31705162322664
STARLINK-1583,46064,53.1625,0.000191,15.31691906,469.45598301020254,472.07226323923715,1 46064U 20055AP  26157.44834473 -.00000261  00000+0  33756-5 0  9998,2 46064  53.1625  61.5041 0001910 100.8496 259.2720 15.31691906322656
STARLINK-1536,46070,53.1608,0.0001669,15.31704463,469.583615937112,471.8697666372627,1 46070U 20055AV  26156.86237453  .00001764  00000+0  68605-4 0  9993,2 46070  53.1608  51.6322 0001669 126.3840 233.7315 15.31704463322743
STARLINK-1542,46073,53.1577,0.000128,15.31709122,469.8361503784645,471.5894559280714,1 46073U 20055AY  26157.40875141  .00007469  00000+0  25214-3 0  9995,2 46073  53.1577  52.0459 0001280 106.3407 253.7735 15.31709122322771
STARLINK-1549,46074,53.0512,0.0003237,15.29194843,475.9985287745394,480.4373329567816,1 46074U 20055AZ  26157.43141718  .00041650  00000+0  14545-2 0  9999,2 46074  53.0512  49.0965 0003237 102.3536 257.7826 15.29194843322805
STARLINK-1551,46075,53.1598,0.0001027,15.3016806,474.6065891090702,476.0142872128681,1 46075U 20055BA  26157.43669575  .00001989  00000+0  79334-4 0  9996,2 46075  53.1598  48.8431 0001027 103.8849 256.2267 15.30168060322823
STARLINK-1552,46076,53.1627,0.0001467,15.31710212,469.7048281647012,471.7142797436318,1 46076U 20055BB  26157.42659502  .00004067  00000+0  14272-3 0  9994,2 46076  53.1627  48.5114 0001467 113.3850 246.7306 15.31710212322818
STARLINK-1559,46077,53.0224,0.0001264,15.38140904,450.7437464946697,452.4703057844781,1 46077U 20055BC  26156.84497585  .00073891  00000+0  19302-2 0  9990,2 46077  53.0224  20.8363 0001264 110.1311 249.9828 15.38140904323112
STARLINK-1566,46079,53.1622,0.0001171,15.31701803,469.93261771497055,471.53662344851,1 46079U 20055BE  26157.43123936  .00001752  00000+0  68190-4 0  9992,2 46079  53.1622  48.3453 0001171  87.6944 272.4192 15.31701803322836
STARLINK-1568,46080,53.0594,0.0003102,15.54125416,402.5920944444151,406.8001641178207,1 46080U 20055BF  26157.65665768  .00050356  00000+0  76406-3 0  9994,2 46080  53.0594 326.0290 0003102  66.9387 293.1950 15.54125416323992
STARLINK-1578,46082,53.1608,0.0001094,15.3169835,469.99564611283495,471.494181475573,1 46082U 20055BH  26156.97887551 -.00000310  00000+0  17602-5 0  9997,2 46082  53.1608  50.9662 0001094 100.8126 259.2999 15.31698350322750
STARLINK-1579,46083,53.1617,0.0001429,15.31695598,469.7744109922387,471.731823787788,1 46083U 20055BJ  26157.42192462  .00004617  00000+0  16048-3 0  9993,2 46083  53.1617  48.4363 0001429 114.2420 245.8731 15.31695598322823
STARLINK-1622,46128,53.0145,0.0007057,15.84553337,312.85755706945474,322.3078958914084,1 46128U 20057M   26158.00004630  .00222810  00000+0  92734-3 0  9992,2 46128  53.0145 140.2835 0007057  61.7466 166.6563 15.84553337  6039
STARLINK-1623,46129,53.0402,0.0006344,15.74584712,341.54751737824336,350.07886538106686,1 46129U 20057N   26157.79291784  .00139940  00000+0  92702-3 0  9992,2 46129  53.0402 179.4529 0006344  25.5650 334.5681 15.74584712320868
STARLINK-1596,46141,53.0351,0.0007222,15.59400926,384.50226902190843,394.2772846984062,1 46141U 20057AA  26157.74271150  .00091454  00000+0  11289-2 0  9993,2 46141  53.0351 162.0728 0007222  27.6504 332.4891 15.59400926321106
STARLINK-1597,46142,53.0407,0.00048,15.74313439,343.3577136199865,349.81344729722787,1 46142U 20057AB  26157.45204310  .00139280  00000+0  93405-3 0  9997,2 46142  53.0407 220.8916 0004800  25.3267 334.7986 15.74313439320244
STARLINK-1606,46144,53.0326,0.000204,15.93529021,291.05547444209515,293.7770601751572,1 46144U 20057AD  26158.00004630  .00407944  76098-4  11171-2 0  9993,2 46144  53.0326 171.2083 0002040 141.6687 161.1865 15.93529021  5922
STARLINK-1608,46146,53.1578,0.0004179,15.35869021,455.483516811506,461.19744468991667,1 46146U 20057AF  26157.55064742  .00045281  00000+0  12816-2 0  9998,2 46146  53.1578 255.2843 0004179 335.9526  24.1282 15.35869021319805
STARLINK-1667,46155,53.0107,0.0006988,15.9022092,296.99628625080277,306.3319763118816,1 46155U 20057AQ  26158.00004630  .00311299  46845-4  10122-2 0  9994,2 46155  53.0107 139.5082 0006988  62.2750 170.7716 15.90220920  5879
STARLINK-1545,46156,53.0368,0.000204,15.84486951,316.40378269105895,319.135712644108,1 46156U 20057AR  26158.00004630  .00935751  00000+0  35931-2 0  9993,2 46156  53.0368 175.7825 0002040  39.4521 181.8530 15.84486951  6018
STARLINK-1595,46159,53.0407,0.00052,15.72150671,349.2514593356191,356.2515833978405,1 46159U 20057AU  26157.48191378  .00124242  00000+0  91591-3 0  9993,2 46159  53.0407 223.4756 0005200  14.7141 345.4026 15.72150671321476
STARLINK-1598,46160,53.0423,0.000107,15.7212885,352.09359221806517,353.534015690112,1 46160U 20057AV  26158.00004630  .00069793  00000+0  52064-3 0  9999,2 46160  53.0423 207.0599 0001070 310.4184 250.0771 15.72128850  5980
STARLINK-1626,46167,53.0396,0.0001484,15.75075619,343.4183805037046,345.41363423629264,1 46167U 20057BC  26158.00004630  .00490045  00000+0  30404-2 0  9997,2 46167  53.0396 216.5370 0001484  72.8628 179.1891 15.75075619  5991
STARLINK-1633,46171,53.0326,0.0001548,15.82926036,321.1336823890588,323.2080977118194,1 46171U 20057BG  26158.00004630  .00160662  00000+0  72935-3 0  9997,2 46171  53.0326 177.6478 0001548  97.3802  82.2461 15.82926036  5748
